FENGYUN-4A
1 41882U 16077A   26082.93437054 -.00000362  00000-0  00000-0 0  9999
2 41882   2.1045  81.1452 0007488 135.6068  64.7773  1.00268745 34075
FOX-1B (AO-91)
1 43017U 17073E   26082.89908688  .00009706  00000-0  43897-3 0  9993
2 43017  97.4834 311.8975 0153134 262.7549  95.6252 15.11166427452507
CANX-2
1 32790U 08021H   26082.86995840  .00004993  00000-0  35655-3 0  9991
2 32790  97.8595  61.0647 0009834 342.9698  17.1196 15.04946925971978
AIST-2 (RS-43)
1 39133U 13015D   26082.78835711  .00007014  00000-0  28334-3 0  9992
2 39133  64.8693 176.3734 0023150 248.5881 111.2779 15.25297657710875
NANOSATC-BR1
1 40024U 14033Q   26082.79673860  .00015912  00000-0  57330-3 0  9994
2 40024  98.0824 107.7672 0005492 115.1390 245.0419 15.28647911640923
QB50P1
1 40025U 14033R   26082.96069245  .00010203  00000-0  52209-3 0  9998
2 40025  98.1012  88.2116 0009844 147.7228 212.4607 15.16807913640100
QB50P2
1 40032U 14033Y   26082.94099232  .00008355  00000-0  46460-3 0  9990
2 40032  98.0749  74.6030 0009445 102.6974 257.5312 15.13923880639765
PERSEUS-M2
1 40037U 14033AD  26082.88143751  .00003064  00000-0  28386-3 0  9993
2 40037  97.9897  31.7472 0010566 216.1099 143.9408 14.95224963638039
PERSEUS-M1
1 40039U 14033AF  26082.79377821  .00002741  00000-0  25387-3 0  9991
2 40039  97.9577  25.5825 0010476 214.0905 145.9644 14.95318898637878
POLYITAN-1
1 40042U 14033AJ  26082.80218220  .00018565  00000-0  63743-3 0  9993
2 40042  98.1039 101.1584 0009558  89.1629 271.0704 15.30155948640523
TIGRISAT
1 40043U 14033AK  26082.87702865  .00002216  00000-0  26202-3 0  9999
2 40043  97.7702 234.9196 0049299 356.1271   3.9556 14.84793599632960
UKUBE-1
1 40074U 14037F   26082.91242125  .00009792  00000-0  57286-3 0  9992
2 40074  98.4253  77.3263 0003418  90.0824 270.0795 15.12091384635665
DEORBITSAIL
1 40719U 15032E   26082.88849944  .00009890  00000-0  74618-3 0  9999
2 40719  97.5985 301.3566 0013137 162.5908 197.5770 15.02562704578431
HORYU-IV
1 41340U 16012D   26082.95050746  .00103480  00000-0  97497-3 0  9991
2 41340  30.9913 328.0716 0005094 291.4277  68.5833 15.65624140557347
D-SAT
1 42794U 17036AF  26082.91323077  .00008527  00000-0  41032-3 0  9998
2 42794  97.5510  62.1643 0085741  96.9854 264.1140 15.15762259477934
CORVUS-BC2
1 42846U 17042X   26082.94945784  .00004042  00000-0  28299-3 0  9999
2 42846  97.3961 247.6881 0013951  48.1217 312.1198 15.05707526474232
CORVUS-BC1
1 42847U 17042Y   26082.68822234  .00003180  00000-0  22243-3 0  9990
2 42847  97.3996 248.1940 0012475  27.6389 332.5500 15.05910286474226
APRIZESAT-5 
1 37792U 11044E   26082.53951602  .00001179  00000-0  15684-3 0  9992
2 37792  98.2411  13.1881 0051009 278.9256  80.6183 14.80896450786115
APRIZESAT-6
1 37793U 11044F   26082.70525374  .00000952  00000-0  14167-3 0  9998
2 37793  98.2406 351.4483 0043318   1.3091  28.1626 14.76781685784536
APRIZESAT-7
1 39416U 13066A   26082.61432677  .00001578  00000-0  16195-3 0  9999
2 39416  97.7621  37.1233 0037036 133.2709 227.1610 14.91325971668472
APRIZESAT-8
1 39425U 13066K   26082.84876096  .00001118  00000-0  12739-3 0  9991
2 39425  97.8139  31.5623 0045329 205.0921 154.8093 14.87460737666986
BUGSAT-1 (TITA)
1 40014U 14033E   26082.97467038  .00006989  00000-0  37748-3 0  9996
2 40014  98.0413 170.6113 0029838 111.3052 249.1369 15.14682832642936
SAUDISAT-4
1 40016U 14033G   26082.36055917  .00000752  00000-0  10610-3 0  9991
2 40016  97.7441 231.5302 0044659 354.5639   5.5082 14.79412997633380
TABLETSAT-AURORA
1 40017U 14033H   26082.94088883  .00008733  00000-0  45202-3 0  9996
2 40017  98.0295 152.0616 0012687 143.0486 217.1622 15.16421712642281
APRIZESAT-9
1 40018U 14033J   26082.95527686  .00000861  00000-0  13358-3 0  9998
2 40018  97.8910 218.3087 0067546 113.9717 246.8583 14.74103166631004
APRIZESAT-10
1 40019U 14033K   26082.88599978  .00000845  00000-0  14022-3 0  9995
2 40019  97.9504 211.8205 0078898 185.2252 174.8140 14.70777840629719
AISAT
1 40054U 14034B   26082.56521125  .00011771  00000-0  78844-3 0  9991
2 40054  98.2426 348.8349 0010179 142.5258 217.6680 15.07032058634307
COSMOS-2407 [+]
1 28380U 04028A   26082.88657289  .00000062  00000-0  47576-4 0  9997
2 28380  82.9607 138.0159 0040437 129.7653  43.4243 13.76326685 88141
COSMOS-2414 [+]
1 28521U 05002A   26082.82020300  .00000049  00000-0  28229-4 0  9998
2 28521  82.9459 108.2267 0039344 211.0009 148.8832 13.87917406 71973
COSMOS-2463 [+]
1 36519U 10017A   26082.90687544  .00000053  00000-0  42385-4 0  9998
2 36519  82.9602 312.3863 0036396   8.8670   1.5830 13.71659347796246
NOAA-15
1 25338U 98030A   26082.93131218  .00000144  00000-0  76692-4 0  9990
2 25338  98.5148 105.8398 0009298 233.2556 126.7772 14.27118039449135
NOAA-18
1 28654U 05018A   26082.90917516  .00000064  00000-0  57151-4 0  9998
2 28654  98.8137 163.8160 0014812  37.2837 322.9361 14.13713628 74265
NOAA-19
1 33591U 09005A   26082.96367493  .00000053  00000-0  52012-4 0  9992
2 33591  98.9581 153.7570 0012689 271.1675  88.8043 14.13459442882440
SARAL
1 39086U 13009A   26082.91666583  .00000093  00000-0  50236-4 0  9993
2 39086  98.5561 270.5556 0002249 145.7846 214.3483 14.32832971683398
LAPAN-A3
1 41603U 16040E   26082.93332942  .00004218  00000-0  13664-3 0  9996
2 41603  97.1493  81.9225 0009274 331.4077  28.6656 15.32505917541756
METOP-A
1 29499U 06044A   26082.91019656  .00001653  00000-0  19688-3 0  9992
2 29499  98.3246 186.9973 0174281 341.6615 135.4454 14.75626728 12871
METEOR M1
1 35865U 09049A   26082.79363264  .00000106  00000-0  66406-4 0  9990
2 35865  98.7300  45.9233 0002120 167.2409 192.8823 14.23135080857107
METOP-B
1 38771U 12049A   26082.94548825  .00000118  00000-0  73935-4 0  9996
2 38771  98.6611 136.1065 0001776 201.4756 158.6347 14.21449337701153
METEOR M2
1 40069U 14037A   26082.97284683  .00000275  00000-0  14527-3 0  9995
2 40069  98.5055  61.7631 0004663 289.8624  70.2051 14.21435291607218
CSSWE
1 38761U 12048D   26082.95841527  .00026261  00000-0  61313-3 0  9993
2 38761  64.6641  21.2482 0065004 198.4666 161.4111 15.39911319103256
MCUBED-2
1 39469U 13072H   26082.73908403  .00013538  00000-0  56150-3 0  9996
2 39469 120.4892  22.6461 0136623 284.0519  74.5399 15.16216773104865
IPEX
1 39471U 13072K   26082.35147996  .00010123  00000-0  52571-3 0  9999
2 39471 120.4635 332.7027 0157989 267.9232  90.3737 15.06744727102297
FOX-1A (AO-85)
1 40967U 15058D   26082.68338697  .00003114  00000-0  28747-3 0  9993
2 40967  64.7758 184.5935 0128510  90.2840 271.2998 14.90458223100827
OOREOS
1 37224U 10062C   26082.93333143  .00002822  00000-0  27423-3 0  9999
2 37224  71.9693 273.3972 0016403 232.5648 127.4031 14.93351824103914
STARS (KUKAI)
1 33498U 09002G   26082.70668564  .00004737  00000-0  43761-3 0  9993
2 33498  98.1473  26.6082 0010021  91.6912 268.5455 14.95071101925704
YUBELEINY-2 (RS-40)
1 38735U 12041C   26082.93178635  .00000031  00000-0  15250-3 0  9994
2 38735  82.4743 127.8665 0016304 251.4647 108.4661 12.42645256619250
AIST-1
1 39492U 13078C   26083.01055294  .00001583  00000-0  13927-3 0  9993
2 39492  82.4192 353.3817 0016043 197.8233 162.2428 14.95818882662511
VELOX-1
1 40057U 14034E   26082.99661833  .00006970  00000-0  61018-3 0  9992
2 40057  98.2599 343.1947 0007252 180.5280 179.5934 14.97035053633851
DX1
1 40071U 14037C   26082.93170917  .00002454  00000-0  26285-3 0  9993
2 40071  98.3788  39.5254 0006833 179.4669 180.6555 14.89686806633410
COSMOS-2491 (RS-46) [i]
1 39497U 13076E   26082.97351464  .00000028  00000-0  12945-3 0  9990
2 39497  82.4855 221.3548 0012161 275.6171  84.3523 12.43495575554667
COSMOS-2499 (RS-47) [i]
1 39765U 14028E   26082.95986765  .00000005  00000-0 -20954-4 0  9998
2 39765  82.4490 309.9547 0231077 201.5133 157.6139 12.82901177554094
TRANSIT 5B-5
1 00965U 64083D   26082.80264529  .00000098  00000-0  12452-3 0  9999
2 00965  90.0775 202.3415 0042212 165.0634 359.8311 13.57003688 32032
EUTELSAT 1-F4 (ECS 4)
1 18351U 87078B   26082.87164271  .00000011  00000-0  00000-0 0  9994
2 18351  13.8892 342.7207 0011934  29.4907 200.5579  0.98686771125913
BISONSAT
1 40968U 15058E   26082.95387069  .00004172  00000-0  34432-3 0  9994
2 40968  64.7753 165.6813 0116894  87.2928 274.1560 14.95193351103916
DTUSAT-2
1 40030U 14033W   26082.93832380  .00008423  00000-0  47030-3 0  9996
2 40030  98.0866  75.3412 0008650 153.9454 206.2213 15.13780924639787
ELEKTRO-L2
1 41105U 15074A   26082.76432565 -.00000120  00000-0  00000-0 0  9998
2 41105   6.4783  71.5608 0002884 243.0046 127.3449  1.00271955 37650
DOVE-3
1 39429U 13066P   26082.87829399  .00003376  00000-0  45103-3 0  9991
2 39429  97.6739 307.0612 0113517 301.9803  57.0413 14.75769716658429
FORTE
1 24920U 97047A   26082.91387778  .00000209  00000-0  10742-3 0  9990
2 24920  69.9533 206.6218 0020391  28.0844 332.1374 14.27906348486511
DMSP 5D-2 F15/USA-147
1 25991U 99067A   26082.95920633  .00000182  00000-0  11215-3 0  9996
2 25991  99.0071 120.4111 0009133 241.9618 182.1731 14.17530173358574
CASSIOPE-1
1 39265U 13055A   26082.91071483  .00037396 -39590-6  44627-3 0  9997
2 39265  80.9188 169.8342 0310660 348.7418  10.6960 15.19847167654696
D-STAR ONE PHOENIX
1 43188U 18014J   26082.99945422  .00006327  00000-0  33440-3 0  9995
2 43188  97.5435 348.5251 0007641 319.7627  40.3039 15.15816405445851
S-NET D
1 43186U 18014G   26083.00017700  .00006479  00000-0  34242-3 0  9994
2 43186  97.5421 348.3487 0007156 325.6065  34.4703 15.15809413445859
TEN-KOH
1 43677U 18084G   26082.96023287  .00002140  00000-0  16587-3 0  9990
2 43677  98.0774 271.7451 0010822  49.0657 311.1502 15.02533388403362
STARS-AO
1 43679U 18084J   26082.82754702  .00006476  00000-0  34072-3 0  9995
2 43679  98.0603 291.5501 0003480  96.2476 263.9152 15.16025686404533
LUOJIA-1 01
1 43485U 18048B   26082.99104524  .00001726  00000-0  19886-3 0  9998
2 43485  97.8130 162.5581 0010087  48.8611 311.3474 14.86946101421556
